CSS (TIANHE)            
1 48274U 21035A   23300.65311590  .00019783  00000+0  23807-3 0  9994
2 48274  41.4683  69.3897 0004384 342.8713  17.1977 15.60344869142546
